OBJECT_NAME,OBJECT_ID,EPOCH,MEAN_MOTION,ECCENTRICITY,INCLINATION,RA_OF_ASC_NODE,ARG_OF_PERICENTER,MEAN_ANOMALY,EPHEMERIS_TYPE,CLASSIFICATION_TYPE,NORAD_CAT_ID,ELEMENT_SET_NO,REV_AT_EPOCH,BSTAR,MEAN_MOTION_DOT,MEAN_MOTION_DDOT
STARLINK-31407,2024-049V,2026-06-06T19:07:22.773504,15.27585966,.00019089,43.0058,349.0762,264.0013,96.0621,0,U,59250,999,12615,.14391031E-3,.37E-4,0
STARLINK-31393,2024-049X,2026-06-07T04:47:44.740032,15.27620698,.000266,43.0016,343.4660,285.8087,74.2471,0,U,59252,999,12626,-.26373E-3,-.7522E-4,0
STARLINK-31425,2024-049Y,2026-06-06T20:19:16.870656,15.27598357,.00012514,43.0001,359.8379,262.0360,98.0350,0,U,59253,999,12603,.10282067E-3,.257E-4,0
STARLINK-31659,2024-050A,2026-06-07T05:09:13.400352,15.34380297,.0001197,53.1601,121.7370,82.6679,277.4460,0,U,59254,999,12545,.11117E-4,-.1E-7,0
STARLINK-31629,2024-050B,2026-06-07T04:58:58.577088,15.30192265,.0001628,53.1607,125.2306,87.8037,272.3150,0,U,59255,999,12425,.11173E-4,-.29E-6,0
STARLINK-31652,2024-050C,2026-06-07T04:40:44.042880,15.30195658,.0000973,53.1584,125.1521,63.2739,296.8361,0,U,59256,999,12425,.17568E-4,.161E-5,0
STARLINK-31637,2024-050E,2026-06-07T04:31:36.673824,15.30197040,.0000951,53.1571,125.1123,76.3501,283.7605,0,U,59258,999,12425,.27629E-4,.459E-5,0
STARLINK-31506,2024-050F,2026-06-07T04:54:25.256736,15.30186712,.0001577,53.1620,125.2123,87.1396,272.9785,0,U,59259,999,12425,.14813E-4,.79E-6,0
STARLINK-31639,2024-050H,2026-06-07T04:36:08.553024,15.30215317,.0000927,53.1601,125.1311,16.5544,343.5487,0,U,59261,999,12425,.32049E-3,.9149E-4,0
STARLINK-31598,2024-050K,2026-06-07T04:12:01.209600,15.30191348,.0001553,53.1613,125.7145,94.3566,265.7613,0,U,59263,999,12424,.36026E-4,.707E-5,0
STARLINK-31645,2024-050L,2026-06-07T05:09:36.590112,15.30194832,.0001194,53.1583,125.2748,97.4064,262.7072,0,U,59264,999,12425,.86035E-3,.25204E-3,0
STARLINK-31646,2024-050M,2026-06-07T05:18:43.967808,15.30185818,.000126,53.1596,125.3145,93.1968,266.9177,0,U,59265,999,12425,.10627E-4,-.45E-6,0
STARLINK-31648,2024-050N,2026-06-07T04:45:18.118368,15.30196751,.0001123,53.1597,125.1725,73.5890,286.5234,0,U,59266,999,12425,.38542E-4,.782E-5,0
STARLINK-31579,2024-050P,2026-06-07T05:05:06.124416,15.30164763,.0001698,53.1613,125.2550,83.2462,276.8732,0,U,59267,999,12425,-.12199E-3,-.3967E-4,0
STARLINK-31627,2024-050Q,2026-06-07T04:02:54.494592,15.30237291,.0003988,53.1601,125.6918,84.0704,276.0751,0,U,59268,999,12424,.12104E-2,.35707E-3,0
STARLINK-31609,2024-050R,2026-06-07T05:14:10.218048,15.30187413,.0001196,53.1605,125.2898,97.3584,262.7552,0,U,59269,999,12425,.23741E-5,-.289E-5,0
STARLINK-31616,2024-050S,2026-06-07T05:23:17.370240,15.30190685,.0001458,53.1595,125.3309,95.0675,265.0492,0,U,59270,999,12425,.65324E-4,.1575E-4,0
STARLINK-31630,2024-050T,2026-06-07T03:23:11.587776,15.34397404,.0001308,53.1597,112.0245,96.6776,263.4376,0,U,59271,999,12443,.89756E-4,.2657E-4,0
STARLINK-31623,2024-050U,2026-06-07T04:08:49.452576,15.30190101,.0001533,53.1606,125.0171,92.0927,268.0249,0,U,59272,999,12425,.20452E-4,.246E-5,0
STARLINK-31595,2024-050V,2026-06-07T04:49:54.631200,15.30163581,.0001168,53.1595,125.2073,95.3966,264.7168,0,U,59273,999,12425,-.1284E-3,-.4155E-4,0
YUNHAI-2 02A,2024-052A,2026-06-07T09:02:29.611104,14.27956751,.0011381,50.0080,124.2783,110.9795,249.2339,0,U,59280,999,9682,.11723E-3,.131E-5,0
YUNHAI-2 02B,2024-052B,2026-06-07T10:06:55.600704,14.27970784,.0004563,50.0107,63.8724,154.0220,206.0924,0,U,59281,999,11521,.11276E-3,.12E-5,0
YUNHAI-2 02C,2024-052C,2026-06-07T11:14:15.249120,14.27960199,.0006218,50.0078,183.6157,130.0531,230.0930,0,U,59282,999,11341,.96527E-4,.8E-6,0
YUNHAI-2 02D,2024-052D,2026-06-07T12:19:49.640736,14.27993455,.0004762,50.0095,303.3542,187.3190,172.7656,0,U,59283,999,11701,.11709E-3,.131E-5,0
YUNHAI-2 02E,2024-052E,2026-06-07T11:16:06.444192,14.27961384,.0011929,50.0118,3.9678,24.9904,335.1586,0,U,59284,999,10554,.11403E-3,.123E-5,0
YUNHAI-2 02F,2024-052F,2026-06-07T11:52:10.770240,14.27986829,.0005301,50.0116,244.0266,148.7377,211.3854,0,U,59285,999,11777,.10011E-3,.89E-6,0
MOLA,2024-053B,2026-06-06T06:04:18.711840,15.58417851,.00030863,49.9886,351.1233,246.3036,113.7610,0,U,59289,999,11979,.76631311E-3,.59522E-3,0
AEROCUBE 16A,2024-053C,2026-06-07T07:54:16.470720,15.43539473,.0002707,49.9905,14.8474,279.9645,80.1012,0,U,59290,999,11958,.35845E-3,.16E-3,0
AEROCUBE 16B,2024-053D,2026-06-07T08:02:48.744096,15.43518197,.0002715,49.9927,15.0299,276.1033,83.9621,0,U,59291,999,11966,.38047E-3,.16999E-3,0
STARLINK-31463,2024-056A,2026-06-07T11:43:57.948960,15.27579249,.0001461,42.9999,79.6267,272.6104,87.4580,0,U,59296,999,12493,.82703E-4,.2014E-4,0
STARLINK-31487,2024-056B,2026-06-07T02:01:53.728032,15.27567438,.0001016,43.0034,86.0691,269.9734,90.1001,0,U,59297,999,12494,.14189E-3,.3643E-4,0
STARLINK-31386,2024-056C,2026-06-07T06:18:26.987040,15.27586135,.0001287,43.0036,84.8270,272.8912,87.1793,0,U,59298,999,12485,.12869E-3,.3281E-4,0
STARLINK-31409,2024-056D,2026-06-07T11:06:03.463776,15.27559393,.0000694,42.9982,76.8237,256.1357,103.9417,0,U,59299,999,12508,-.11323E-3,-.3374E-4,0
STARLINK-31489,2024-056E,2026-06-07T05:56:14.779392,15.27596193,.0001405,43.0029,84.7113,264.6259,95.4432,0,U,59300,999,12485,.40268E-3,.1084E-3,0
STARLINK-31502,2024-056F,2026-06-07T01:04:04.457856,15.27580274,.0001839,43.0047,78.8382,266.1136,93.9505,0,U,59301,999,12490,.33001E-4,.646E-5,0
STARLINK-31447,2024-056G,2026-06-07T01:39:41.309568,15.27576965,.0001541,43.0031,85.9504,269.2809,90.7866,0,U,59302,999,12482,.21184E-4,.321E-5,0
STARLINK-31504,2024-056H,2026-06-07T01:50:46.955904,15.27581857,.0000973,43.0019,86.0101,267.9338,92.1402,0,U,59303,999,12482,.29805E-4,.558E-5,0
STARLINK-31474,2024-056J,2026-06-07T11:13:25.500864,15.27565492,.0001459,42.9997,76.8556,280.4947,79.5741,0,U,59304,999,12496,.61781E-4,.1438E-4,0
STARLINK-31500,2024-056K,2026-06-07T01:45:12.073824,15.27617685,.000127,43.0013,85.9866,93.6792,266.4205,0,U,59305,999,12482,.18222E-3,.4761E-4,0
STARLINK-31480,2024-056L,2026-06-01T07:19:07.370688,15.27576061,.0001322,43.0030,118.3680,265.8038,94.2663,0,U,59306,999,12394,.4818106E-5,-.13E-5,0
STARLINK-31282,2024-056M,2026-06-07T01:56:20.420160,15.27579525,.0000732,42.9998,86.0350,228.0942,131.9848,0,U,59307,999,12482,.35017E-4,.702E-5,0
STARLINK-31485,2024-056N,2026-06-07T11:32:21.291072,15.27599782,.0001228,43.0035,83.8759,270.7341,89.3370,0,U,59308,999,12488,.49242E-4,.1094E-4,0
STARLINK-31455,2024-056P,2026-06-07T11:33:05.387904,15.27571158,.0001096,43.0051,80.4278,278.1318,81.9409,0,U,59309,999,12492,-.67322E-5,-.447E-5,0
STARLINK-31475,2024-056Q,2026-06-07T11:29:28.735584,15.27397644,.000105,42.9987,80.4085,86.7600,273.3371,0,U,59310,999,12504,.15493E-2,.42378E-3,0
STARLINK-31445,2024-056S,2026-06-06T13:23:34.802016,15.27553579,.0000942,43.0090,95.9094,209.7674,150.3125,0,U,59312,999,12466,.51948E-4,.1167E-4,0
STARLINK-31495,2024-056T,2026-06-06T01:28:26.950656,15.32687069,.0006245,42.9989,83.4884,204.8544,155.2009,0,U,59313,999,12476,.39148E-2,.128167E-2,0
STARLINK-31477,2024-056U,2026-06-05T12:28:54.334848,15.27568473,.00008626,43.0040,87.1814,242.6098,117.4666,0,U,59314,999,12467,-.5574312E-5,-.415E-5,0
STARLINK-31446,2024-056V,2026-06-06T12:34:59.278080,15.27575472,.0000703,43.0009,88.7468,294.3757,65.7021,0,U,59315,999,12474,.12028E-4,.69E-6,0
STARLINK-31479,2024-056W,2026-06-07T02:45:36.305856,15.27581895,.00019,43.0139,89.7502,321.3872,38.6844,0,U,59316,999,12478,-.14529E-3,-.4259E-4,0
STARLINK-31349,2024-056X,2026-06-07T01:30:26.707104,15.27570884,.0000236,43.0000,85.9044,25.8903,334.1960,0,U,59317,999,12489,-.27251E-4,-.1011E-4,0
STARLINK-31464,2024-056Y,2026-06-06T12:46:04.887264,15.27582072,.0001462,43.0033,88.7990,306.0708,54.0008,0,U,59318,999,12474,.72429E-4,.1731E-4,0
STARLINK-31402,2024-057A,2026-06-06T19:44:56.114016,15.29755988,.00047998,43.0010,355.9558,274.2084,85.8220,0,U,59320,999,12400,.32375633E-2,.96246E-3,0
STARLINK-31578,2024-057B,2026-06-07T09:30:48.267072,15.27582939,.0001464,43.0054,40.0162,253.5726,106.4965,0,U,59321,999,12356,.29692E-4,.555E-5,0
STARLINK-31530,2024-057C,2026-06-06T07:43:52.919328,15.67786677,.00264459,42.9863,23.8650,252.1183,107.6799,0,U,59322,999,12365,.96888503E-3,.112728E-2,0
STARLINK-31565,2024-057D,2026-06-05T11:00:05.582880,15.27577041,.00013849,43.0053,59.0633,271.0370,89.0323,0,U,59323,999,12317,.10511683E-4,.27E-6,0
STARLINK-31570,2024-057E,2026-06-06T09:54:57.318624,15.27600696,.00017633,43.0055,46.4031,275.4240,84.6410,0,U,59324,999,12340,.1231323E-3,.313E-4,0
STARLINK-31611,2024-057F,2026-06-07T09:29:12.070176,15.27548405,.0001712,43.0054,40.8759,273.7266,86.3390,0,U,59325,999,12355,-.13154E-3,-.3877E-4,0
STARLINK-31632,2024-057G,2026-06-07T10:18:53.404992,15.27577282,.0001472,43.0053,51.5167,260.8869,99.1816,0,U,59326,999,12343,.24452E-4,.411E-5,0
STARLINK-31599,2024-057H,2026-06-05T23:23:25.573056,15.27580556,.00011027,43.0023,48.2718,282.6467,77.4261,0,U,59327,999,12334,.31994579E-4,.618E-5,0
STARLINK-31614,2024-057J,2026-06-07T08:55:51.648384,15.27584899,.0000849,43.0095,40.7029,290.6084,69.4677,0,U,59328,999,12355,.60378E-4,.14E-4,0
STARLINK-31493,2024-057K,2026-06-06T08:59:28.140000,15.27578123,.00005146,43.0005,46.1152,272.8898,87.1895,0,U,59329,999,12340,.19858636E-4,.285E-5,0
STARLINK-31634,2024-057L,2026-06-06T09:36:27.873504,15.27579279,.00018527,43.0016,46.3031,264.3560,95.7080,0,U,59330,999,12340,.211193E-4,.319E-5,0
STARLINK-31633,2024-057M,2026-06-06T00:07:49.635840,15.27580367,.000143,43.0037,48.4955,253.7287,106.3407,0,U,59331,999,12334,.27457E-4,.493E-5,0
STARLINK-31594,2024-057N,2026-06-07T12:00:04.000320,15.27555915,.0001927,43.0038,51.1702,263.4672,102.2139,0,U,59332,999,584,.28869E-3,.7684E-4,0
STARLINK-31572,2024-057P,2026-06-06T04:39:10.427616,15.27583239,.00009612,43.0039,58.5788,293.0899,66.9851,0,U,59333,999,12324,.49133699E-4,.109E-4,0
